CCSDS_OMM_VERS = 2.0
CREATION_DATE  = 
ORIGINATOR     = 

OBJECT_NAME    = STARLINK-35408
OBJECT_ID      = 2025-223F
CENTER_NAME    = EARTH
REF_FRAME      = TEME
TIME_SYSTEM    = UTC
MEAN_ELEMENT_THEORY = SGP/SGP4

EPOCH          = 2025-10-28T16:00:07.000416
MEAN_MOTION    = 15.39570199
ECCENTRICITY   = .00012483
INCLINATION    = 53.1586
RA_OF_ASC_NODE = 190.0163
ARG_OF_PERICENTER = 117.3299
MEAN_ANOMALY   = 311.0810

EPHEMERIS_TYPE = 0
CLASSIFICATION_TYPE = U
NORAD_CAT_ID   = 65859
ELEMENT_SET_NO = 999
REV_AT_EPOCH   = 524
BSTAR          = .19292434E-2
MEAN_MOTION_DOT = .77429E-3
MEAN_MOTION_DDOT = 0

CCSDS_OMM_VERS = 2.0
CREATION_DATE  = 
ORIGINATOR     = 

OBJECT_NAME    = STARLINK-35303
OBJECT_ID      = 2025-223G
CENTER_NAME    = EARTH
REF_FRAME      = TEME
TIME_SYSTEM    = UTC
MEAN_ELEMENT_THEORY = SGP/SGP4

EPOCH          = 2025-10-28T16:00:07.000416
MEAN_MOTION    = 15.39559594
ECCENTRICITY   = .00012379
INCLINATION    = 53.1599
RA_OF_ASC_NODE = 189.8637
ARG_OF_PERICENTER = 109.2193
MEAN_ANOMALY   = 36.4721

EPHEMERIS_TYPE = 0
CLASSIFICATION_TYPE = U
NORAD_CAT_ID   = 65860
ELEMENT_SET_NO = 999
REV_AT_EPOCH   = 524
BSTAR          = .18898775E-2
MEAN_MOTION_DOT = .75798E-3
MEAN_MOTION_DDOT = 0

CCSDS_OMM_VERS = 2.0
CREATION_DATE  = 
ORIGINATOR     = 

OBJECT_NAME    = STARLINK-35258
OBJECT_ID      = 2025-223H
CENTER_NAME    = EARTH
REF_FRAME      = TEME
TIME_SYSTEM    = UTC
MEAN_ELEMENT_THEORY = SGP/SGP4

EPOCH          = 2025-10-28T13:37:35.833440
MEAN_MOTION    = 15.49358459
ECCENTRICITY   = .00004711
INCLINATION    = 53.1591
RA_OF_ASC_NODE = 190.2441
ARG_OF_PERICENTER = 139.8829
MEAN_ANOMALY   = 220.2215

EPHEMERIS_TYPE = 0
CLASSIFICATION_TYPE = U
NORAD_CAT_ID   = 65861
ELEMENT_SET_NO = 999
REV_AT_EPOCH   = 394
BSTAR          = .2192027E-2
MEAN_MOTION_DOT = .123626E-2
MEAN_MOTION_DDOT = 0

CCSDS_OMM_VERS = 2.0
CREATION_DATE  = 
ORIGINATOR     = 

OBJECT_NAME    = STARLINK-35386
OBJECT_ID      = 2025-223J
CENTER_NAME    = EARTH
REF_FRAME      = TEME
TIME_SYSTEM    = UTC
MEAN_ELEMENT_THEORY = SGP/SGP4

EPOCH          = 2025-10-28T16:00:07.000416
MEAN_MOTION    = 15.44080703
ECCENTRICITY   = .00012751
INCLINATION    = 53.1598
RA_OF_ASC_NODE = 189.7749
ARG_OF_PERICENTER = 91.2112
MEAN_ANOMALY   = 98.0010

EPHEMERIS_TYPE = 0
CLASSIFICATION_TYPE = U
NORAD_CAT_ID   = 65862
ELEMENT_SET_NO = 999
REV_AT_EPOCH   = 524
BSTAR          = -.49184402E-1
MEAN_MOTION_DOT = -.203236E-1
MEAN_MOTION_DDOT = 0

CCSDS_OMM_VERS = 2.0
CREATION_DATE  = 
ORIGINATOR     = 

OBJECT_NAME    = STARLINK-35469
OBJECT_ID      = 2025-223K
CENTER_NAME    = EARTH
REF_FRAME      = TEME
TIME_SYSTEM    = UTC
MEAN_ELEMENT_THEORY = SGP/SGP4

EPOCH          = 2025-10-28T16:00:07.000416
MEAN_MOTION    = 15.39568601
ECCENTRICITY   = .00013101
INCLINATION    = 53.1589
RA_OF_ASC_NODE = 189.9643
ARG_OF_PERICENTER = 97.0544
MEAN_ANOMALY   = 357.1175

EPHEMERIS_TYPE = 0
CLASSIFICATION_TYPE = U
NORAD_CAT_ID   = 65863
ELEMENT_SET_NO = 999
REV_AT_EPOCH   = 524
BSTAR          = .18754961E-2
MEAN_MOTION_DOT = .75235E-3
MEAN_MOTION_DDOT = 0

CCSDS_OMM_VERS = 2.0
CREATION_DATE  = 
ORIGINATOR     = 

OBJECT_NAME    = STARLINK-35471
OBJECT_ID      = 2025-223L
CENTER_NAME    = EARTH
REF_FRAME      = TEME
TIME_SYSTEM    = UTC
MEAN_ELEMENT_THEORY = SGP/SGP4

EPOCH          = 2025-10-28T13:35:07.698048
MEAN_MOTION    = 15.49348660
ECCENTRICITY   = .00011807
INCLINATION    = 53.1590
RA_OF_ASC_NODE = 190.2325
ARG_OF_PERICENTER = 81.7351
MEAN_ANOMALY   = 278.3792

EPHEMERIS_TYPE = 0
CLASSIFICATION_TYPE = U
NORAD_CAT_ID   = 65864
ELEMENT_SET_NO = 999
REV_AT_EPOCH   = 394
BSTAR          = .19889255E-2
MEAN_MOTION_DOT = .111922E-2
MEAN_MOTION_DDOT = 0

CCSDS_OMM_VERS = 2.0
CREATION_DATE  = 
ORIGINATOR     = 

OBJECT_NAME    = STARLINK-35475
OBJECT_ID      = 2025-223M
CENTER_NAME    = EARTH
REF_FRAME      = TEME
TIME_SYSTEM    = UTC
MEAN_ELEMENT_THEORY = SGP/SGP4

EPOCH          = 2025-10-28T13:34:37.845120
MEAN_MOTION    = 15.49359026
ECCENTRICITY   = .00011133
INCLINATION    = 53.1601
RA_OF_ASC_NODE = 190.2304
ARG_OF_PERICENTER = 113.3420
MEAN_ANOMALY   = 246.7707

EPHEMERIS_TYPE = 0
CLASSIFICATION_TYPE = U
NORAD_CAT_ID   = 65865
ELEMENT_SET_NO = 999
REV_AT_EPOCH   = 394
BSTAR          = .20283213E-2
MEAN_MOTION_DOT = .114223E-2
MEAN_MOTION_DDOT = 0

CCSDS_OMM_VERS = 2.0
CREATION_DATE  = 
ORIGINATOR     = 

OBJECT_NAME    = STARLINK-35312
OBJECT_ID      = 2025-223N
CENTER_NAME    = EARTH
REF_FRAME      = TEME
TIME_SYSTEM    = UTC
MEAN_ELEMENT_THEORY = SGP/SGP4

EPOCH          = 2025-10-28T13:34:08.393952
MEAN_MOTION    = 15.49343128
ECCENTRICITY   = .00021147
INCLINATION    = 53.1592
RA_OF_ASC_NODE = 190.2277
ARG_OF_PERICENTER = 128.0758
MEAN_ANOMALY   = 232.0442

EPHEMERIS_TYPE = 0
CLASSIFICATION_TYPE = U
NORAD_CAT_ID   = 65866
ELEMENT_SET_NO = 999
REV_AT_EPOCH   = 394
BSTAR          = .23030282E-2
MEAN_MOTION_DOT = .129947E-2
MEAN_MOTION_DDOT = 0

CCSDS_OMM_VERS = 2.0
CREATION_DATE  = 
ORIGINATOR     = 

OBJECT_NAME    = STARLINK-35456
OBJECT_ID      = 2025-223P
CENTER_NAME    = EARTH
REF_FRAME      = TEME
TIME_SYSTEM    = UTC
MEAN_ELEMENT_THEORY = SGP/SGP4

EPOCH          = 2025-10-28T13:33:39.592512
MEAN_MOTION    = 15.49379238
ECCENTRICITY   = .00012893
INCLINATION    = 53.1598
RA_OF_ASC_NODE = 190.2254
ARG_OF_PERICENTER = 105.5171
MEAN_ANOMALY   = 254.5980

EPHEMERIS_TYPE = 0
CLASSIFICATION_TYPE = U
NORAD_CAT_ID   = 65867
ELEMENT_SET_NO = 999
REV_AT_EPOCH   = 394
BSTAR          = .24619258E-2
MEAN_MOTION_DOT = .139285E-2
MEAN_MOTION_DDOT = 0

CCSDS_OMM_VERS = 2.0
CREATION_DATE  = 
ORIGINATOR     = 

OBJECT_NAME    = STARLINK-35450
OBJECT_ID      = 2025-223Q
CENTER_NAME    = EARTH
REF_FRAME      = TEME
TIME_SYSTEM    = UTC
MEAN_ELEMENT_THEORY = SGP/SGP4

EPOCH          = 2025-10-28T16:00:07.000416
MEAN_MOTION    = 15.39573114
ECCENTRICITY   = .0001116
INCLINATION    = 53.1594
RA_OF_ASC_NODE = 189.9090
ARG_OF_PERICENTER = 120.8897
MEAN_ANOMALY   = 0.8481

EPHEMERIS_TYPE = 0
CLASSIFICATION_TYPE = U
NORAD_CAT_ID   = 65868
ELEMENT_SET_NO = 999
REV_AT_EPOCH   = 524
BSTAR          = .18585999E-2
MEAN_MOTION_DOT = .74558E-3
MEAN_MOTION_DDOT = 0

CCSDS_OMM_VERS = 2.0
CREATION_DATE  = 
ORIGINATOR     = 

OBJECT_NAME    = STARLINK-35441
OBJECT_ID      = 2025-223R
CENTER_NAME    = EARTH
REF_FRAME      = TEME
TIME_SYSTEM    = UTC
MEAN_ELEMENT_THEORY = SGP/SGP4

EPOCH          = 2025-10-28T16:00:07.000416
MEAN_MOTION    = 15.39569221
ECCENTRICITY   = .00010747
INCLINATION    = 53.1591
RA_OF_ASC_NODE = 189.9589
ARG_OF_PERICENTER = 97.9079
MEAN_ANOMALY   = 358.0973

EPHEMERIS_TYPE = 0
CLASSIFICATION_TYPE = U
NORAD_CAT_ID   = 65869
ELEMENT_SET_NO = 999
REV_AT_EPOCH   = 524
BSTAR          = .18201084E-2
MEAN_MOTION_DOT = .72981E-3
MEAN_MOTION_DDOT = 0

CCSDS_OMM_VERS = 2.0
CREATION_DATE  = 
ORIGINATOR     = 

OBJECT_NAME    = STARLINK-35433
OBJECT_ID      = 2025-223S
CENTER_NAME    = EARTH
REF_FRAME      = TEME
TIME_SYSTEM    = UTC
MEAN_ELEMENT_THEORY = SGP/SGP4

EPOCH          = 2025-10-28T16:00:07.000416
MEAN_MOTION    = 15.39557167
ECCENTRICITY   = .00016321
INCLINATION    = 53.1599
RA_OF_ASC_NODE = 189.8048
ARG_OF_PERICENTER = 119.0410
MEAN_ANOMALY   = 54.2144

EPHEMERIS_TYPE = 0
CLASSIFICATION_TYPE = U
NORAD_CAT_ID   = 65870
ELEMENT_SET_NO = 999
REV_AT_EPOCH   = 524
BSTAR          = .19849208E-2
MEAN_MOTION_DOT = .79665E-3
MEAN_MOTION_DDOT = 0

