STARLINK-35408          
1 65859U 25223F   25301.66674769  .00077429  00000+0  19292-2 0  9992
2 65859  53.1586 190.0163 0001248 117.3299 311.0810 15.39570199  5244
STARLINK-35303          
1 65860U 25223G   25301.66674769  .00075798  00000+0  18899-2 0  9993
2 65860  53.1599 189.8637 0001237 109.2193  36.4721 15.39559594  5248
STARLINK-35258          
1 65861U 25223H   25301.56777585  .00123626  00000+0  21920-2 0  9996
2 65861  53.1591 190.2441 0000471 139.8829 220.2215 15.49358459  3948
STARLINK-35386          
1 65862U 25223J   25301.66674769 -.02032360  00000+0 -49184-1 0  9997
2 65862  53.1598 189.7749 0001275  91.2112  98.0010 15.44080703  5247
STARLINK-35469          
1 65863U 25223K   25301.66674769  .00075235  00000+0  18755-2 0  9993
2 65863  53.1589 189.9643 0001310  97.0544 357.1175 15.39568601  5249
STARLINK-35471          
1 65864U 25223L   25301.56606132  .00111922  00000+0  19889-2 0  9995
2 65864  53.1590 190.2325 0001180  81.7351 278.3792 15.49348660  3941
STARLINK-35475          
1 65865U 25223M   25301.56571580  .00114223  00000+0  20283-2 0  9991
2 65865  53.1601 190.2304 0001113 113.3420 246.7707 15.49359026  3940
STARLINK-35312          
1 65866U 25223N   25301.56537493  .00129947  00000+0  23030-2 0  9999
2 65866  53.1592 190.2277 0002114 128.0758 232.0442 15.49343128  3948
STARLINK-35456          
1 65867U 25223P   25301.56504158  .00139285  00000+0  24619-2 0  9992
2 65867  53.1598 190.2254 0001289 105.5171 254.5980 15.49379238  3948
STARLINK-35450          
1 65868U 25223Q   25301.66674769  .00074558  00000+0  18586-2 0  9997
2 65868  53.1594 189.9090 0001116 120.8897   0.8481 15.39573114  5243
STARLINK-35441          
1 65869U 25223R   25301.66674769  .00072981  00000+0  18201-2 0  9990
2 65869  53.1591 189.9589 0001074  97.9079 358.0973 15.39569221  5241
STARLINK-35433          
1 65870U 25223S   25301.66674769  .00079665  00000+0  19849-2 0  9997
2 65870  53.1599 189.8048 0001632 119.0410  54.2144 15.39557167  5246
